{
    "links": {
        "self": "http://www.neowsapp.com/rest/v1/neo/3883084?api_key=iIulBulltgU6a56xZRHN4H3l9WmuAYTsLGpBGhQ2"
    },
    "id": "3883084",
    "neo_reference_id": "3883084",
    "name": "(2019 UJ7)",
    "designation": "2019 UJ7",
    "nasa_jpl_url": "http://ssd.jpl.nasa.gov/sbdb.cgi?sstr=3883084",
    "absolute_magnitude_h": 24.6,
    "estimated_diameter": {
        "kilometers": {
            "estimated_diameter_min": 0.0319561887,
            "estimated_diameter_max": 0.0714562102
        },
        "meters": {
            "estimated_diameter_min": 31.9561886721,
            "estimated_diameter_max": 71.4562101727
        },
        "miles": {
            "estimated_diameter_min": 0.0198566489,
            "estimated_diameter_max": 0.0444008168
        },
        "feet": {
            "estimated_diameter_min": 104.8431420431,
            "estimated_diameter_max": 234.436392583
        }
    },
    "is_potentially_hazardous_asteroid": false,
    "close_approach_data": [
        {
            "close_approach_date": "2008-11-02",
            "close_approach_date_full": "2008-Nov-02 15:02",
            "epoch_date_close_approach": 1225638120000,
            "relative_velocity": {
                "kilometers_per_second": "5.3975423621",
                "kilometers_per_hour": "19431.1525036116",
                "miles_per_hour": "12073.7625098135"
            },
            "miss_distance": {
                "astronomical": "0.1845739473",
                "lunar": "71.7992654997",
                "kilometers": "27611869.373572251",
                "miles": "17157220.0378730238"
            },
            "orbiting_body": "Earth"
        },
        {
            "close_approach_date": "2019-11-04",
            "close_approach_date_full": "2019-Nov-04 13:13",
            "epoch_date_close_approach": 1572873180000,
            "relative_velocity": {
                "kilometers_per_second": "5.1839369591",
                "kilometers_per_hour": "18662.1730526331",
                "miles_per_hour": "11595.948583732"
            },
            "miss_distance": {
                "astronomical": "0.1523512837",
                "lunar": "59.2646493593",
                "kilometers": "22791427.533285719",
                "miles": "14161936.3714681622"
            },
            "orbiting_body": "Earth"
        },
        {
            "close_approach_date": "2030-11-04",
            "close_approach_date_full": "2030-Nov-04 20:19",
            "epoch_date_close_approach": 1920053940000,
            "relative_velocity": {
                "kilometers_per_second": "5.1528320171",
                "kilometers_per_hour": "18550.1952615384",
                "miles_per_hour": "11526.3699390376"
            },
            "miss_distance": {
                "astronomical": "0.1395055634",
                "lunar": "54.2676641626",
                "kilometers": "20869735.137789958",
                "miles": "12967852.0873311004"
            },
            "orbiting_body": "Earth"
        },
        {
            "close_approach_date": "2041-11-04",
            "close_approach_date_full": "2041-Nov-04 21:09",
            "epoch_date_close_approach": 2267212140000,
            "relative_velocity": {
                "kilometers_per_second": "5.1909316893",
                "kilometers_per_hour": "18687.3540814069",
                "miles_per_hour": "11611.5950957497"
            },
            "miss_distance": {
                "astronomical": "0.1362530186",
                "lunar": "53.0024242354",
                "kilometers": "20383161.363630382",
                "miles": "12665509.1638959916"
            },
            "orbiting_body": "Earth"
        },
        {
            "close_approach_date": "2052-11-04",
            "close_approach_date_full": "2052-Nov-04 21:25",
            "epoch_date_close_approach": 2614368300000,
            "relative_velocity": {
                "kilometers_per_second": "5.2634410529",
                "kilometers_per_hour": "18948.3877903101",
                "miles_per_hour": "11773.7912911513"
            },
            "miss_distance": {
                "astronomical": "0.1382031928",
                "lunar": "53.7610419992",
                "kilometers": "20674903.270079336",
                "miles": "12846789.1784973968"
            },
            "orbiting_body": "Earth"
        }
    ],
    "orbital_data": {
        "orbit_id": "3",
        "orbit_determination_date": "2019-11-24 04:53:11",
        "first_observation_date": "2019-10-24",
        "last_observation_date": "2019-11-23",
        "data_arc_in_days": 30,
        "observations_used": 23,
        "orbit_uncertainty": "7",
        "minimum_orbit_intersection": ".137301",
        "jupiter_tisserand_invariant": "4.140",
        "epoch_osculation": "2459000.5",
        "eccentricity": ".3347474164249815",
        "semi_major_axis": "1.690854813364436",
        "inclination": "8.499898788092143",
        "ascending_node_longitude": "215.6388111815968",
        "orbital_period": "803.0783242378783",
        "perihelion_distance": "1.124845533040947",
        "perihelion_argument": "194.0177344475379",
        "aphelion_distance": "2.256864093687925",
        "perihelion_time": "2458804.104072937636",
        "mean_anomaly": "88.039399904795",
        "mean_motion": ".4482750799452098",
        "equinox": "J2000",
        "orbit_class": {
            "orbit_class_type": "AMO",
            "orbit_class_description": "Near-Earth asteroid orbits similar to that of 1221 Amor",
            "orbit_class_range": "1.017 AU < q (perihelion) < 1.3 AU"
        }
    },
    "is_sentry_object": false
}